IRIDIUM 26              
1 24903U 97043A   25220.89276923  .00000330  00000+0  10427-3 0  9990
2 24903  86.3918  88.4759 0001949  86.0772 274.0648 14.37177584464315
IRIDIUM 22              
1 24907U 97043E   25220.93589941  .00000314  00000+0  10124-3 0  9992
2 24907  86.3927  92.0449 0002087  89.2980 270.8456 14.35986542464340
DUMMY MASS 2            
1 24926U 97048B   25220.94468302  .00000392  00000+0  40815-4 0  9993
2 24926  86.3346 112.5586 0006642 350.3469   9.7627 14.86774690512743
IRIDIUM 29              
1 24944U 97051A   25220.80068891  .00000389  00000+0  12595-3 0  9990
2 24944  86.3972 121.8387 0002380  87.1172 273.0297 14.36503878460824
IRIDIUM 33              
1 24946U 97051C   25220.77059316  .00000253  00000+0  81954-4 0  9996
2 24946  86.3885 121.1159 0005677 267.4772  92.5774 14.34920029460283
IRIDIUM 28              
1 24948U 97051E   25220.94981464  .00000309  00000+0  96701-4 0  9993
2 24948  86.3973 119.2615 0001674  83.4764 276.6624 14.37416544461429
IRIDIUM 36              
1 24967U 97056C   25220.90489752  .00000330  00000+0  10329-3 0  9993
2 24967  86.4020 150.8724 0002094  91.4657 268.6780 14.37643779459796
